ONEWEB-0578             
1 56067U 23043X   25291.10195095  .00000133  00000+0  28979-3 0  9999
2 56067  87.9167 292.2765 0002014  83.7810 276.3553 13.21855887126256
ONEWEB-0579             
1 56068U 23043Y   25291.09220167  .00000064  00000+0  12306-3 0  9997
2 56068  87.9169 292.2656 0001790  97.8061 262.3277 13.21893392126264
ONEWEB-0581             
1 56069U 23043Z   25291.17594998  .00000057  00000+0  11521-3 0  9993
2 56069  87.8973 276.9969 0001440  82.0437 278.0857 13.16593600127114
ONEWEB-0609             
1 56070U 23043AA  25291.09328227  .00000026  00000+0  33672-4 0  9994
2 56070  87.8974 307.5322 0001918  94.5168 265.6181 13.15548486124604
ONEWEB-0613             
1 56071U 23043AB  25291.08853271 -.00000028  00000+0 -10865-3 0  9998
2 56071  87.8972 307.5467 0001880 101.7826 258.3515 13.15550600124604
ONEWEB-0630             
1 56072U 23043AC  25291.15983742 -.00000017  00000+0 -79478-4 0  9998
2 56072  87.8971 307.5047 0001887 102.4888 257.6453 13.15548010124606
ONEWEB-0632             
1 56073U 23043AD  25291.15508821 -.00000059  00000+0 -19190-3 0  9990
2 56073  87.8969 307.5250 0001628  92.8251 267.3065 13.15548416124606
ONEWEB-0633             
1 56074U 23043AE  25291.14874337 -.00000032  00000+0 -12011-3 0  9994
2 56074  87.8968 307.4898 0002083 103.6378 256.4984 13.15548060124581
